NORAD_CAT_ID,OBJECT_NAME,OBJECT_TYPE,EPOCH,MEAN_MOTION,ECCENTRICITY,INCLINATION,RA_OF_ASC_NODE,ARG_OF_PERICENTER,MEAN_ANOMALY,BSTAR,MEAN_MOTION_DOT,MEAN_MOTION_DDOT,TLE_LINE0,TLE_LINE1,TLE_LINE2,SEMIMAJOR_AXIS,PERIOD,APOGEE,PERIGEE,DECAYED
56791.0,STARLINK-5977,PAYLOAD,2024-02-02 11:47:52,14.98329924,0.0002604,70.0027,116.2245,223.1172,136.9784,4.0333e-05,3.88e-06,0.0,0 STARLINK-5977,1 56791U 23078AA  24033.49157647  .00000388  00000-0  40333-4 0  9999,2 56791  70.0027 116.2245 0002604 223.1172 136.9784 14.98329924 38175,6950.193,96.107,573.868,570.248,0.0
56791.0,STARLINK-5977,PAYLOAD,2024-02-02 13:24:00,14.9833071,0.0002558,70.0023,116.0558,228.8716,131.2223,3.7533e-05,3.55e-06,0.0,0 STARLINK-5977,1 56791U 23078AA  24033.55833615  .00000355  00000-0  37533-4 0  9994,2 56791  70.0023 116.0558 0002558 228.8716 131.2223 14.98330710 37923,6950.191,96.107,573.834,570.278,0.0
56791.0,STARLINK-5977,PAYLOAD,2024-02-02 15:00:08,14.98334108,0.0002363,70.0011,115.886,266.6757,93.4132,4.7279e-05,4.71e-06,0.0,0 STARLINK-5977,1 56791U 23078AA  24033.62509541  .00000471  00000-0  47279-4 0  9997,2 56791  70.0011 115.8860 0002363 266.6757  93.4132 14.98334108 37936,6950.18,96.107,573.688,570.403,0.0
56791.0,STARLINK-5977,PAYLOAD,2024-02-03 11:49:53,14.98324418,0.0003128,69.9995,113.6967,265.2508,94.8294,-3.2619e-05,-4.82e-06,0.0,0 STARLINK-5977,1 56791U 23078AA  24034.49298266 -.00000482  00000-0 -32619-4 0  9998,2 56791  69.9995 113.6967 0003128 265.2508  94.8294 14.98324418 38328,6950.21,96.107,574.249,569.901,0.0
56791.0,STARLINK-5977,PAYLOAD,2024-02-03 13:26:01,14.98327893,0.0002754,70.0,113.5291,254.3965,105.689,-0.00010275,-1.319e-05,0.0,0 STARLINK-5977,1 56791U 23078AA  24034.55974282 -.00001319  00000-0 -10275-3 0  9997,2 56791  70.0000 113.5291 0002754 254.3965 105.6890 14.98327893 38072,6950.199,96.107,573.978,570.15,0.0
56791.0,STARLINK-5977,PAYLOAD,2024-02-03 15:02:10,14.98320946,0.0002864,70.0,113.3599,264.2425,95.8407,-1.7114e-05,-2.97e-06,0.0,0 STARLINK-5977,1 56791U 23078AA  24034.62650553 -.00000297  00000-0 -17114-4 0  9991,2 56791  70.0000 113.3599 0002864 264.2425  95.8407 14.98320946 38081,6950.221,96.108,574.076,570.095,0.0
56791.0,STARLINK-5977,PAYLOAD,2024-02-04 11:51:56,14.98303893,0.0002514,70.0012,111.1733,238.8273,121.264,-0.00027308,-3.347e-05,0.0,0 STARLINK-5977,1 56791U 23078AA  24035.49440497 -.00003347  00000-0 -27308-3 0  9995,2 56791  70.0012 111.1733 0002514 238.8273 121.2640 14.98303893 38478,6950.274,96.109,573.886,570.391,0.0
56791.0,STARLINK-5977,PAYLOAD,2024-02-04 13:28:04,14.98313841,0.0002802,69.9998,111.0035,260.886,99.1982,-0.00021106,-2.609e-05,0.0,0 STARLINK-5977,1 56791U 23078AA  24035.56115924 -.00002609  00000-0 -21106-3 0  9997,2 56791  69.9998 111.0035 0002802 260.8860  99.1982 14.98313841 38228,6950.243,96.108,574.055,570.16,0.0
56791.0,STARLINK-5977,PAYLOAD,2024-02-04 15:04:12,14.98314665,0.0002904,69.9996,110.8349,265.0509,95.0319,-0.00020785,-2.571e-05,0.0,0 STARLINK-5977,1 56791U 23078AA  24035.62791886 -.00002571  00000-0 -20785-3 0  9991,2 56791  69.9996 110.8349 0002904 265.0509  95.0319 14.98314665 38494,6950.24,96.108,574.124,570.087,0.0
56791.0,STARLINK-5977,PAYLOAD,2024-02-05 11:53:56,14.98323483,0.0003077,69.9989,108.6451,269.8746,90.206,5.9385e-05,6.15e-06,0.0,0 STARLINK-5977,1 56791U 23078AA  24036.49579202  .00000615  00000-0  59385-4 0  9997,2 56791  69.9989 108.6451 0003077 269.8746  90.2060 14.98323483 38625,6950.213,96.107,574.217,569.939,0.0
56791.0,STARLINK-5977,PAYLOAD,2024-02-05 13:30:04,14.98325206,0.0002973,69.9992,108.4767,273.0,87.0819,8.4487e-05,9.15e-06,0.0,0 STARLINK-5977,1 56791U 23078AA  24036.56255084  .00000915  00000-0  84487-4 0  9998,2 56791  69.9992 108.4767 0002973 273.0000  87.0819 14.98325206 38374,6950.208,96.107,574.139,570.006,0.0
56791.0,STARLINK-5977,PAYLOAD,2024-02-05 15:06:12,14.98327103,0.0003021,69.9991,108.3088,268.5403,91.541,9.8134e-05,1.078e-05,0.0,0 STARLINK-5977,1 56791U 23078AA  24036.62930898  .00001078  00000-0  98134-4 0  9993,2 56791  69.9991 108.3088 0003021 268.5403  91.5410 14.98327103 38385,6950.202,96.107,574.167,569.967,0.0
56791.0,STARLINK-5977,PAYLOAD,2024-02-06 03:55:16,14.9834582,0.0003188,69.9986,106.9612,279.8814,80.1985,3.9944e-05,3.84e-06,0.0,0 STARLINK-5977,1 56791U 23078AA  24037.16338003  .00000384  00000-0  39944-4 0  9996,2 56791  69.9986 106.9612 0003188 279.8814  80.1985 14.98345820 38726,6950.144,96.106,574.225,569.793,0.0
56791.0,STARLINK-5977,PAYLOAD,2024-02-06 11:55:56,14.98307827,0.0003073,69.9988,106.1199,269.2542,90.8265,0.00091349,0.00010817,0.0,0 STARLINK-5977,1 56791U 23078AA  24037.49717636  .00010817  00000-0  91349-3 0  9993,2 56791  69.9988 106.1199 0003073 269.2542  90.8265 14.98307827 38773,6950.261,96.108,574.262,569.991,0.0
56791.0,STARLINK-5977,PAYLOAD,2024-02-06 13:32:03,14.98330629,0.0003013,69.999,105.9516,274.0779,86.0036,0.00057551,6.781e-05,0.0,0 STARLINK-5977,1 56791U 23078AA  24037.56393127  .00006781  00000-0  57551-3 0  9998,2 56791  69.9990 105.9516 0003013 274.0779  86.0036 14.98330629 38528,6950.191,96.107,574.15,569.962,0.0
56791.0,STARLINK-5977,PAYLOAD,2024-02-07 03:57:16,14.98336724,0.0002611,69.9996,104.4372,268.079,92.007,6.3582e-05,6.66e-06,0.0,0 STARLINK-5977,1 56791U 23078AA  24038.16477845  .00000666  00000-0  63582-4 0  9993,2 56791  69.9996 104.4372 0002611 268.0790  92.0070 14.98336724 38872,6950.172,96.107,573.852,570.222,0.0
56791.0,STARLINK-5977,PAYLOAD,2024-02-07 13:34:05,14.98332746,0.0002498,69.9998,103.4272,264.2509,95.8365,3.9093e-06,-4.6e-07,0.0,0 STARLINK-5977,1 56791U 23078AA  24038.56534050 -.00000046  00000-0  39093-5 0  9993,2 56791  69.9998 103.4272 0002498 264.2509  95.8365 14.98332746 38677,6950.184,96.107,573.786,570.313,0.0
56791.0,STARLINK-5977,PAYLOAD,2024-02-08 03:59:17,14.98339799,0.0002632,69.9999,101.9127,265.7819,94.3039,-0.00018211,-2.266e-05,0.0,0 STARLINK-5977,1 56791U 23078AA  24039.16617789 -.00002266  00000-0 -18211-3 0  9995,2 56791  69.9999 101.9127 0002632 265.7819  94.3039 14.98339799 39027,6950.163,96.106,573.857,570.198,0.0
56791.0,STARLINK-5977,PAYLOAD,2024-02-08 13:36:05,14.98341056,0.0002918,69.9991,100.902,269.7552,90.3272,-0.00018183,-2.262e-05,0.0,0 STARLINK-5977,1 56791U 23078AA  24039.56673435 -.00002262  00000-0 -18183-3 0  9993,2 56791  69.9991 100.9020 0002918 269.7552  90.3272 14.98341056 38826,6950.159,96.106,574.052,569.996,0.0
56791.0,STARLINK-5977,PAYLOAD,2024-02-09 04:01:18,14.98319459,0.0002676,69.9993,99.3875,266.4928,93.5925,0.00011899,1.327e-05,0.0,0 STARLINK-5977,1 56791U 23078AA  24040.16757624  .00001327  00000-0  11899-3 0  9990,2 56791  69.9993  99.3875 0002676 266.4928  93.5925 14.98319459 39170,6950.225,96.108,573.95,570.231,0.0
56791.0,STARLINK-5977,PAYLOAD,2024-02-09 13:38:07,14.98325274,0.000301,69.9986,98.3759,267.9098,92.1716,-5.708e-05,-7.74e-06,0.0,0 STARLINK-5977,1 56791U 23078AA  24040.56813913 -.00000774  00000-0 -57080-4 0  9998,2 56791  69.9986  98.3759 0003010 267.9098  92.1716 14.98325274 38971,6950.208,96.107,574.165,569.98,0.0
56791.0,STARLINK-5977,PAYLOAD,2024-02-10 04:03:19,14.98328194,0.0003166,69.9984,96.8608,269.9651,90.1145,9.1053e-05,9.94e-06,0.0,0 STARLINK-5977,1 56791U 23078AA  24041.16897341  .00000994  00000-0  91053-4 0  9992,2 56791  69.9984  96.8608 0003166 269.9651  90.1145 14.98328194 39322,6950.198,96.107,574.264,569.863,0.0
56791.0,STARLINK-5977,PAYLOAD,2024-02-10 13:40:07,14.98336873,0.0003075,69.9986,95.8511,269.1273,90.9534,0.00012825,1.438e-05,0.0,0 STARLINK-5977,1 56791U 23078AA  24041.56952660  .00001438  00000-0  12825-3 0  9995,2 56791  69.9986  95.8511 0003075 269.1273  90.9534 14.98336873 39128,6950.172,96.107,574.174,569.899,0.0
56791.0,STARLINK-5977,PAYLOAD,2024-02-11 04:05:20,14.98327267,0.0002593,69.9996,94.3371,259.9205,100.1661,9.12e-05,9.95e-06,0.0,0 STARLINK-5977,1 56791U 23078AA  24042.17037248  .00000995  00000-0  91200-4 0  9991,2 56791  69.9996  94.3371 0002593 259.9205 100.1661 14.98327267 39473,6950.201,96.107,573.869,570.264,0.0
56791.0,STARLINK-5977,PAYLOAD,2024-02-11 13:42:08,14.98329035,0.0002423,69.9994,93.3263,259.3296,100.759,0.00012139,1.356e-05,0.0,0 STARLINK-5977,1 56791U 23078AA  24042.57093109  .00001356  00000-0  12139-3 0  9998,2 56791  69.9994  93.3263 0002423 259.3296 100.7590 14.98329035 39276,6950.196,96.107,573.745,570.377,0.0
56791.0,STARLINK-5977,PAYLOAD,2024-02-12 04:07:20,14.98335132,0.0002566,69.9996,91.8115,273.2041,86.8825,-1.309e-05,-2.49e-06,0.0,0 STARLINK-5977,1 56791U 23078AA  24043.17176982 -.00000249  00000-0 -13090-4 0  9996,2 56791  69.9996  91.8115 0002566 273.2041  86.8825 14.98335132 39627,6950.177,96.107,573.825,570.259,0.0
56791.0,STARLINK-5977,PAYLOAD,2024-02-12 13:44:09,14.98334256,0.0002587,69.9996,90.8015,269.8527,90.2335,5.3796e-06,-2.9e-07,0.0,0 STARLINK-5977,1 56791U 23078AA  24043.57232840 -.00000029  00000-0  53796-5 0  9999,2 56791  69.9996  90.8015 0002587 269.8527  90.2335 14.98334256 39427,6950.18,96.107,573.843,570.247,0.0
56791.0,STARLINK-5977,PAYLOAD,2024-02-13 04:09:22,14.98325467,0.0002395,69.9991,89.2856,259.4577,100.6312,-6.5376e-05,-8.73e-06,0.0,0 STARLINK-5977,1 56791U 23078AA  24044.17317485 -.00000873  00000-0 -65376-4 0  9999,2 56791  69.9991  89.2856 0002395 259.4577 100.6312 14.98325467 39777,6950.207,96.107,573.736,570.407,0.0
56791.0,STARLINK-5977,PAYLOAD,2024-02-13 12:10:02,14.98322099,0.0002519,69.9993,88.4446,263.9744,96.1128,-8.0626e-05,-1.055e-05,0.0,0 STARLINK-5977,1 56791U 23078AA  24044.50697871 -.00001055  00000-0 -80626-4 0  9994,2 56791  69.9993  88.4446 0002519 263.9744  96.1128 14.98322099 39568,6950.217,96.108,573.833,570.332,0.0
56791.0,STARLINK-5977,PAYLOAD,2024-02-13 20:10:42,14.98328428,0.0002677,69.9991,87.6038,270.8029,89.2823,-6.6977e-05,-8.92e-06,0.0,0 STARLINK-5977,1 56791U 23078AA  24044.84077529 -.00000892  00000-0 -66977-4 0  9994,2 56791  69.9991  87.6038 0002677 270.8029  89.2823 14.98328428 39615,6950.198,96.107,573.923,570.202,0.0
